<?xml version="1.0" encoding="UTF-8"?>
<ndm xmlns:xsi="http://www.w3.org/2001/XMLSchema-instance" xsi:noNamespaceSchemaLocation="https://sanaregistry.org/r/ndmxml_unqualified/ndmxml-2.0.0-master-2.0.xsd">
<omm id="CCSDS_OMM_VERS" version="2.0">
<header><CREATION_DATE/><ORIGINATOR/></header><body><segment><metadata><OBJECT_NAME>KUIPER-00133</OBJECT_NAME><OBJECT_ID>2025-217C</OBJECT_ID><CENTER_NAME>EARTH</CENTER_NAME><REF_FRAME>TEME</REF_FRAME><TIME_SYSTEM>UTC</TIME_SYSTEM><MEAN_ELEMENT_THEORY>SGP4</MEAN_ELEMENT_THEORY></metadata><data><meanElements><EPOCH>2026-01-25T14:55:45.812928</EPOCH><MEAN_MOTION>14.79908978</MEAN_MOTION><ECCENTRICITY>.0002178</ECCENTRICITY><INCLINATION>51.9013</INCLINATION><RA_OF_ASC_NODE>243.5510</RA_OF_ASC_NODE><ARG_OF_PERICENTER>199.3948</ARG_OF_PERICENTER><MEAN_ANOMALY>160.6932</MEAN_ANOMALY></meanElements><tleParameters><EPHEMERIS_TYPE>0</EPHEMERIS_TYPE><CLASSIFICATION_TYPE>U</CLASSIFICATION_TYPE><NORAD_CAT_ID>65764</NORAD_CAT_ID><ELEMENT_SET_NO>999</ELEMENT_SET_NO><REV_AT_EPOCH>1836</REV_AT_EPOCH><BSTAR>.31354E-3</BSTAR><MEAN_MOTION_DOT>.2168E-4</MEAN_MOTION_DOT><MEAN_MOTION_DDOT>0</MEAN_MOTION_DDOT></tleParameters></data></segment></body></omm>
<omm id="CCSDS_OMM_VERS" version="2.0">
<header><CREATION_DATE/><ORIGINATOR/></header><body><segment><metadata><OBJECT_NAME>KUIPER-00139</OBJECT_NAME><OBJECT_ID>2025-217D</OBJECT_ID><CENTER_NAME>EARTH</CENTER_NAME><REF_FRAME>TEME</REF_FRAME><TIME_SYSTEM>UTC</TIME_SYSTEM><MEAN_ELEMENT_THEORY>SGP4</MEAN_ELEMENT_THEORY></metadata><data><meanElements><EPOCH>2026-01-25T14:13:45.850656</EPOCH><MEAN_MOTION>15.02338113</MEAN_MOTION><ECCENTRICITY>.0008149</ECCENTRICITY><INCLINATION>51.8841</INCLINATION><RA_OF_ASC_NODE>231.1304</RA_OF_ASC_NODE><ARG_OF_PERICENTER>171.0626</ARG_OF_PERICENTER><MEAN_ANOMALY>189.0492</MEAN_ANOMALY></meanElements><tleParameters><EPHEMERIS_TYPE>0</EPHEMERIS_TYPE><CLASSIFICATION_TYPE>U</CLASSIFICATION_TYPE><NORAD_CAT_ID>65765</NORAD_CAT_ID><ELEMENT_SET_NO>999</ELEMENT_SET_NO><REV_AT_EPOCH>1853</REV_AT_EPOCH><BSTAR>.63691E-3</BSTAR><MEAN_MOTION_DOT>.8258E-4</MEAN_MOTION_DOT><MEAN_MOTION_DDOT>0</MEAN_MOTION_DDOT></tleParameters></data></segment></body></omm>
<omm id="CCSDS_OMM_VERS" version="2.0">
<header><CREATION_DATE/><ORIGINATOR/></header><body><segment><metadata><OBJECT_NAME>KUIPER-00142</OBJECT_NAME><OBJECT_ID>2025-217E</OBJECT_ID><CENTER_NAME>EARTH</CENTER_NAME><REF_FRAME>TEME</REF_FRAME><TIME_SYSTEM>UTC</TIME_SYSTEM><MEAN_ELEMENT_THEORY>SGP4</MEAN_ELEMENT_THEORY></metadata><data><meanElements><EPOCH>2026-01-26T06:46:54.308928</EPOCH><MEAN_MOTION>14.79954698</MEAN_MOTION><ECCENTRICITY>.0000168</ECCENTRICITY><INCLINATION>51.8972</INCLINATION><RA_OF_ASC_NODE>223.1189</RA_OF_ASC_NODE><ARG_OF_PERICENTER>27.8492</ARG_OF_PERICENTER><MEAN_ANOMALY>332.2480</MEAN_ANOMALY></meanElements><tleParameters><EPHEMERIS_TYPE>0</EPHEMERIS_TYPE><CLASSIFICATION_TYPE>U</CLASSIFICATION_TYPE><NORAD_CAT_ID>65766</NORAD_CAT_ID><ELEMENT_SET_NO>999</ELEMENT_SET_NO><REV_AT_EPOCH>1870</REV_AT_EPOCH><BSTAR>.52202E-3</BSTAR><MEAN_MOTION_DOT>.3763E-4</MEAN_MOTION_DOT><MEAN_MOTION_DDOT>0</MEAN_MOTION_DDOT></tleParameters></data></segment></body></omm>
<omm id="CCSDS_OMM_VERS" version="2.0">
<header><CREATION_DATE/><ORIGINATOR/></header><body><segment><metadata><OBJECT_NAME>KUIPER-00145</OBJECT_NAME><OBJECT_ID>2025-217F</OBJECT_ID><CENTER_NAME>EARTH</CENTER_NAME><REF_FRAME>TEME</REF_FRAME><TIME_SYSTEM>UTC</TIME_SYSTEM><MEAN_ELEMENT_THEORY>SGP4</MEAN_ELEMENT_THEORY></metadata><data><meanElements><EPOCH>2026-01-25T19:22:16.719744</EPOCH><MEAN_MOTION>14.79928021</MEAN_MOTION><ECCENTRICITY>.00015038</ECCENTRICITY><INCLINATION>51.8984</INCLINATION><RA_OF_ASC_NODE>227.7345</RA_OF_ASC_NODE><ARG_OF_PERICENTER>79.8474</ARG_OF_PERICENTER><MEAN_ANOMALY>280.2658</MEAN_ANOMALY></meanElements><tleParameters><EPHEMERIS_TYPE>0</EPHEMERIS_TYPE><CLASSIFICATION_TYPE>U</CLASSIFICATION_TYPE><NORAD_CAT_ID>65767</NORAD_CAT_ID><ELEMENT_SET_NO>999</ELEMENT_SET_NO><REV_AT_EPOCH>1859</REV_AT_EPOCH><BSTAR>.67096664E-3</BSTAR><MEAN_MOTION_DOT>.4897E-4</MEAN_MOTION_DOT><MEAN_MOTION_DDOT>0</MEAN_MOTION_DDOT></tleParameters></data></segment></body></omm>
<omm id="CCSDS_OMM_VERS" version="2.0">
<header><CREATION_DATE/><ORIGINATOR/></header><body><segment><metadata><OBJECT_NAME>KUIPER-00147</OBJECT_NAME><OBJECT_ID>2025-217G</OBJECT_ID><CENTER_NAME>EARTH</CENTER_NAME><REF_FRAME>TEME</REF_FRAME><TIME_SYSTEM>UTC</TIME_SYSTEM><MEAN_ELEMENT_THEORY>SGP4</MEAN_ELEMENT_THEORY></metadata><data><meanElements><EPOCH>2026-01-26T04:13:14.983104</EPOCH><MEAN_MOTION>14.79882819</MEAN_MOTION><ECCENTRICITY>.00010052</ECCENTRICITY><INCLINATION>51.8966</INCLINATION><RA_OF_ASC_NODE>228.6007</RA_OF_ASC_NODE><ARG_OF_PERICENTER>134.6913</ARG_OF_PERICENTER><MEAN_ANOMALY>225.4131</MEAN_ANOMALY></meanElements><tleParameters><EPHEMERIS_TYPE>0</EPHEMERIS_TYPE><CLASSIFICATION_TYPE>U</CLASSIFICATION_TYPE><NORAD_CAT_ID>65768</NORAD_CAT_ID><ELEMENT_SET_NO>999</ELEMENT_SET_NO><REV_AT_EPOCH>1861</REV_AT_EPOCH><BSTAR>.48392994E-3</BSTAR><MEAN_MOTION_DOT>.3466E-4</MEAN_MOTION_DOT><MEAN_MOTION_DDOT>0</MEAN_MOTION_DDOT></tleParameters></data></segment></body></omm>
<omm id="CCSDS_OMM_VERS" version="2.0">
<header><CREATION_DATE/><ORIGINATOR/></header><body><segment><metadata><OBJECT_NAME>KUIPER-00148</OBJECT_NAME><OBJECT_ID>2025-217H</OBJECT_ID><CENTER_NAME>EARTH</CENTER_NAME><REF_FRAME>TEME</REF_FRAME><TIME_SYSTEM>UTC</TIME_SYSTEM><MEAN_ELEMENT_THEORY>SGP4</MEAN_ELEMENT_THEORY></metadata><data><meanElements><EPOCH>2026-01-26T05:47:11.051232</EPOCH><MEAN_MOTION>15.09485426</MEAN_MOTION><ECCENTRICITY>.0009739</ECCENTRICITY><INCLINATION>51.8764</INCLINATION><RA_OF_ASC_NODE>221.3949</RA_OF_ASC_NODE><ARG_OF_PERICENTER>199.8266</ARG_OF_PERICENTER><MEAN_ANOMALY>160.2332</MEAN_ANOMALY></meanElements><tleParameters><EPHEMERIS_TYPE>0</EPHEMERIS_TYPE><CLASSIFICATION_TYPE>U</CLASSIFICATION_TYPE><NORAD_CAT_ID>65769</NORAD_CAT_ID><ELEMENT_SET_NO>999</ELEMENT_SET_NO><REV_AT_EPOCH>1872</REV_AT_EPOCH><BSTAR>.59675E-3</BSTAR><MEAN_MOTION_DOT>.9404E-4</MEAN_MOTION_DOT><MEAN_MOTION_DDOT>0</MEAN_MOTION_DDOT></tleParameters></data></segment></body></omm>
<omm id="CCSDS_OMM_VERS" version="2.0">
<header><CREATION_DATE/><ORIGINATOR/></header><body><segment><metadata><OBJECT_NAME>KUIPER-00150</OBJECT_NAME><OBJECT_ID>2025-217J</OBJECT_ID><CENTER_NAME>EARTH</CENTER_NAME><REF_FRAME>TEME</REF_FRAME><TIME_SYSTEM>UTC</TIME_SYSTEM><MEAN_ELEMENT_THEORY>SGP4</MEAN_ELEMENT_THEORY></metadata><data><meanElements><EPOCH>2026-01-26T07:11:55.207392</EPOCH><MEAN_MOTION>14.80013475</MEAN_MOTION><ECCENTRICITY>.0000898</ECCENTRICITY><INCLINATION>51.8999</INCLINATION><RA_OF_ASC_NODE>238.0477</RA_OF_ASC_NODE><ARG_OF_PERICENTER>108.1280</ARG_OF_PERICENTER><MEAN_ANOMALY>251.9780</MEAN_ANOMALY></meanElements><tleParameters><EPHEMERIS_TYPE>0</EPHEMERIS_TYPE><CLASSIFICATION_TYPE>U</CLASSIFICATION_TYPE><NORAD_CAT_ID>65770</NORAD_CAT_ID><ELEMENT_SET_NO>999</ELEMENT_SET_NO><REV_AT_EPOCH>1849</REV_AT_EPOCH><BSTAR>.55593E-3</BSTAR><MEAN_MOTION_DOT>.4027E-4</MEAN_MOTION_DOT><MEAN_MOTION_DDOT>0</MEAN_MOTION_DDOT></tleParameters></data></segment></body></omm>
<omm id="CCSDS_OMM_VERS" version="2.0">
<header><CREATION_DATE/><ORIGINATOR/></header><body><segment><metadata><OBJECT_NAME>KUIPER-00151</OBJECT_NAME><OBJECT_ID>2025-217K</OBJECT_ID><CENTER_NAME>EARTH</CENTER_NAME><REF_FRAME>TEME</REF_FRAME><TIME_SYSTEM>UTC</TIME_SYSTEM><MEAN_ELEMENT_THEORY>SGP4</MEAN_ELEMENT_THEORY></metadata><data><meanElements><EPOCH>2026-01-25T21:40:15.489120</EPOCH><MEAN_MOTION>14.79970541</MEAN_MOTION><ECCENTRICITY>.00009046</ECCENTRICITY><INCLINATION>51.8998</INCLINATION><RA_OF_ASC_NODE>232.3013</RA_OF_ASC_NODE><ARG_OF_PERICENTER>116.8950</ARG_OF_PERICENTER><MEAN_ANOMALY>243.2105</MEAN_ANOMALY></meanElements><tleParameters><EPHEMERIS_TYPE>0</EPHEMERIS_TYPE><CLASSIFICATION_TYPE>U</CLASSIFICATION_TYPE><NORAD_CAT_ID>65771</NORAD_CAT_ID><ELEMENT_SET_NO>999</ELEMENT_SET_NO><REV_AT_EPOCH>1854</REV_AT_EPOCH><BSTAR>.66373295E-3</BSTAR><MEAN_MOTION_DOT>.4847E-4</MEAN_MOTION_DOT><MEAN_MOTION_DDOT>0</MEAN_MOTION_DDOT></tleParameters></data></segment></body></omm>

</ndm>
