KUIPER-00133            
1 65764U 25217C   26025.62205802  .00002168  00000+0  31354-3 0  9990
2 65764  51.9013 243.5510 0002178 199.3948 160.6932 14.79908978 18367
KUIPER-00139            
1 65765U 25217D   26025.59289179  .00008258  00000+0  63691-3 0  9991
2 65765  51.8841 231.1304 0008149 171.0626 189.0492 15.02338113 18534
KUIPER-00142            
1 65766U 25217E   26026.28257302  .00003763  00000+0  52202-3 0  9994
2 65766  51.8972 223.1189 0000168  27.8492 332.2480 14.79954698 18707
KUIPER-00145            
1 65767U 25217F   26025.80713796  .00004897  00000+0  67097-3 0  9993
2 65767  51.8984 227.7345 0001503  79.8474 280.2658 14.79928021 18593
KUIPER-00147            
1 65768U 25217G   26026.17586786  .00003466  00000+0  48393-3 0  9991
2 65768  51.8966 228.6007 0001005 134.6913 225.4131 14.79882819 18618
KUIPER-00148            
1 65769U 25217H   26026.24110013  .00009404  00000+0  59675-3 0  9999
2 65769  51.8764 221.3949 0009739 199.8266 160.2332 15.09485426 18724
KUIPER-00150            
1 65770U 25217J   26026.29994453  .00004027  00000+0  55593-3 0  9995
2 65770  51.8999 238.0477 0000898 108.1280 251.9780 14.80013475 18491
KUIPER-00151            
1 65771U 25217K   26025.90295705  .00004847  00000+0  66373-3 0  9995
2 65771  51.8998 232.3013 0000904 116.8950 243.2105 14.79970541 18547
